     2.100          NAVIGATION                              RINEX VERSION / TYPE
fic2rin                                 01/21/2011 00:24:25 PGM / RUN BY / DATE
                                                            END OF HEADER
 1 11  1 20  6  0  0.0 -.201574992388D-03 -.318323145621D-11  .000000000000D+00
     .830000000000D+02 -.147875000000D+03  .458054794106D-08  .111531177086D+01
    -.753812491894D-05  .443118519615D-02  .489130616188D-05  .515355858231D+04
     .367200000000D+06 -.409781932831D-07 -.707730157288D+00  .124797224998D-06
     .967617995871D+00  .289406250000D+03  .897378133321D+00 -.839249243814D-08
    -.442518432669D-09  .100000000000D+01  .161900000000D+04  .000000000000D+00
     .240000000000D+01  .630000000000D+02 -.190921127796D-07  .830000000000D+02
     .360006000000D+06  .400000000000D+01
 2 11  1 20  6  0  0.0  .315699726343D-03  .216004991671D-11  .000000000000D+00
     .940000000000D+02  .321875000000D+02  .551058668091D-08 -.525148261367D+00
     .163912773132D-05  .992665009107D-02  .541657209396D-05  .515368803787D+04
     .367200000000D+06  .214204192162D-06  .137163647350D+01 -.633299350739D-07
     .938826227618D+00  .265437500000D+03 -.310108431300D+01 -.859642950437D-08
     .397873715894D-09  .100000000000D+01  .161900000000D+04  .000000000000D+00
     .240000000000D+01  .000000000000D+00 -.172294676304D-07  .940000000000D+02
     .360006000000D+06  .400000000000D+01
 3 11  1 20  6  0  0.0  .664900057018D-03  .511590769747D-11  .000000000000D+00
     .290000000000D+02 -.712187500000D+02  .502020911186D-08 -.586837669104D+00
    -.364333391190D-05  .139181569684D-01  .132489949465D-04  .515364632797D+04
     .367200000000D+06 -.894069671631D-07  .215822999311D+00  .236555933952D-06
     .928662180016D+00  .106812500000D+03  .106927653454D+01 -.840070706603D-08
     .240009997380D-09  .100000000000D+01  .161900000000D+04  .000000000000D+00
     .340000000000D+01  .000000000000D+00 -.465661287308D-08  .290000000000D+02
     .360006000000D+06  .400000000000D+01
 4 11  1 20  6  0  0.0  .133584253490D-04  .100044417195D-10  .000000000000D+00
     .420000000000D+02  .341875000000D+02  .545629870531D-08  .244453077519D+01
     .160187482834D-05  .963069847785D-02  .563263893127D-05  .515357037163D+04
     .367200000000D+06 -.912696123123D-07  .138919966378D+01 -.162050127983D-06
     .937921819477D+00  .260937500000D+03  .702561103027D+00 -.839070664947D-08
     .413588656199D-09  .100000000000D+01  .161900000000D+04  .000000000000D+00
     .240000000000D+01  .000000000000D+00 -.605359673500D-08  .420000000000D+02
     .360006000000D+06  .400000000000D+01
 5 11  1 20  6  0  0.0 -.101645942777D-03 -.591171556152D-11  .000000000000D+00
     .800000000000D+02 -.421562500000D+02  .480448584041D-08  .115386298600D+01
    -.204332172871D-05  .223034084775D-02  .798515975475D-05  .515359569931D+04
     .367200000000D+06 -.465661287308D-07  .243320170791D+01  .558793544769D-08
     .955435141800D+00  .222156250000D+03  .264985015290D+00 -.812640992616D-08
    -.641098132882D-09  .100000000000D+01  .161900000000D+04  .000000000000D+00
     .240000000000D+01  .000000000000D+00 -.977888703346D-08  .800000000000D+02
     .360006000000D+06  .400000000000D+01
 6 11  1 20  6  0  0.0 -.219470821321D-04 -.288764567813D-10  .000000000000D+00
     .400000000000D+02 -.668437500000D+02  .476269838550D-08  .152062670258D+01
    -.346079468727D-05  .634995172732D-02  .131856650114D-04  .515366382790D+04
     .367200000000D+06  .115483999252D-06  .288370622445D+00  .391155481339D-07
     .935839343888D+00  .106375000000D+03 -.875082309434D+00 -.798747556756D-08
     .277868717205D-09  .100000000000D+01  .161900000000D+04  .000000000000D+00
     .240000000000D+01  .000000000000D+00 -.465661287308D-08  .400000000000D+02
     .360006000000D+06  .400000000000D+01
 7 11  1 20  6  0  0.0  .211270526052D-05  .682121026330D-12  .000000000000D+00
     .740000000000D+02  .937500000000D+02  .461626371448D-08 -.226502732997D+01
     .480189919472D-05  .416079699062D-02  .146590173244D-05  .515367536545D+04
     .367200000000D+06 -.838190317154D-07 -.174689079546D+01 -.113621354103D-06
     .973404136772D+00  .361343750000D+03 -.309496988450D+01 -.845070914881D-08
     .354300472323D-09  .100000000000D+01  .161900000000D+04  .000000000000D+00
     .240000000000D+01  .000000000000D+00 -.102445483208D-07  .740000000000D+02
     .360006000000D+06  .400000000000D+01
 8 11  1 20  6  0  0.0  .718468800187D-05  .000000000000D+00  .000000000000D+00
     .144000000000D+03  .762500000000D+02  .412981488051D-08 -.279440294329D+01
     .394321978092D-05  .114291746868D-01  .131689012051D-05  .515362325668D+04
     .367200000000D+06 -.242143869400D-06 -.167400013998D+01 -.279396772385D-07
     .994949877210D+00  .376906250000D+03 -.309014695373D+01 -.808355099806D-08
     .288226291496D-09  .100000000000D+01  .161900000000D+04  .000000000000D+00
     .485000000000D+01  .000000000000D+00 -.419095158577D-08  .144000000000D+03
     .360006000000D+06  .400000000000D+01
 9 11  1 20  6  0  0.0  .564786605537D-04  .238742359215D-11  .000000000000D+00
     .610000000000D+02  .930937500000D+02  .430839374761D-08 -.291597192575D+01
     .472553074360D-05  .169859463349D-01  .127777457237D-05  .515368465805D+04
     .367200000000D+06  .288709998131D-06 -.177630743600D+01  .968575477600D-07
     .982394976740D+00  .365218750000D+03  .155643596159D+01 -.802819154926D-08
     .347871633107D-09  .100000000000D+01  .161900000000D+04  .000000000000D+00
     .340000000000D+01  .000000000000D+00 -.558793544769D-08  .610000000000D+02
     .360006000000D+06  .400000000000D+01
10 11  1 20  6  0  0.0 -.637671910226D-04 -.113686837722D-11  .000000000000D+00
     .410000000000D+02 -.401875000000D+02  .497163566001D-08  .140382043425D+01
    -.202283263206D-05  .998538802378D-02  .836886465549D-05  .515355935478D+04
     .367200000000D+06 -.121071934700D-06  .245761700312D+01  .335276126862D-07
     .950427993072D+00  .215843750000D+03  .688665471784D+00 -.828998816843D-08
    -.760745973838D-09  .100000000000D+01  .161900000000D+04  .000000000000D+00
     .240000000000D+01  .000000000000D+00 -.279396772385D-08  .410000000000D+02
     .360006000000D+06  .400000000000D+01
11 11  1 20  6  0  0.0 -.120695680380D-03 -.295585778076D-11  .000000000000D+00
     .530000000000D+02  .465000000000D+02  .640669543601D-08 -.220801032312D+01
     .236369669437D-05  .115998408291D-01  .678747892380D-05  .515348751831D+04
     .367200000000D+06  .145286321640D-06  .114079235131D+01 -.987201929092D-07
     .887786803518D+00  .207593750000D+03  .905040086301D+00 -.878286584162D-08
     .729316093228D-09  .100000000000D+01  .161900000000D+04  .000000000000D+00
     .240000000000D+01  .000000000000D+00 -.116415321827D-07  .530000000000D+02
     .360006000000D+06  .400000000000D+01
12 11  1 20  6  0  0.0 -.342372804880D-04  .329691829393D-11  .000000000000D+00
     .320000000000D+02 -.130843750000D+03  .428089260207D-08 -.210247599366D+01
    -.683590769768D-05  .349719752558D-02  .498630106449D-05  .515352724457D+04
     .367200000000D+06 -.139698386192D-06 -.691828509869D+00 -.894069671631D-07
     .973754896251D+00  .288281250000D+03 -.323349785159D+00 -.816033991091D-08
    -.365015204348D-09  .100000000000D+01  .161900000000D+04  .000000000000D+00
     .240000000000D+01  .000000000000D+00 -.116415321827D-07  .320000000000D+02
     .360006000000D+06  .400000000000D+01
13 11  1 20  6  0  0.0  .285303685814D-03 -.125055521494D-11  .000000000000D+00
     .850000000000D+02  .121500000000D+03  .343907182257D-08  .259868576341D+00
     .620633363724D-05  .440798047930D-02  .126566737890D-04  .515366492462D+04
     .367200000000D+06 -.391155481339D-07 -.272386412758D+01 -.372529029846D-07
     .991282673668D+00  .150031250000D+03  .179019471252D+01 -.757710133097D-08
     .714315468392D-10  .100000000000D+01  .161900000000D+04  .000000000000D+00
     .240000000000D+01  .000000000000D+00 -.107102096081D-07  .850000000000D+02
     .360006000000D+06  .400000000000D+01
14 11  1 20  6  0  0.0  .125131104141D-03  .295585778076D-11  .000000000000D+00
     .970000000000D+02  .117468750000D+03  .372229790579D-08  .214725430393D+00
     .600889325142D-05  .565447658300D-02  .117942690849D-04  .515362808800D+04
     .367200000000D+06 -.782310962677D-07 -.274720829904D+01  .800937414169D-07
     .984400562818D+00  .167281250000D+03 -.207785477517D+01 -.766031908304D-08
     .378587198248D-10  .100000000000D+01  .161900000000D+04  .000000000000D+00
     .240000000000D+01  .000000000000D+00 -.884756445885D-08  .970000000000D+02
     .360006000000D+06  .400000000000D+01
15 11  1 20  6  0  0.0 -.159497372806D-03  .375166564481D-11  .000000000000D+00
     .113000000000D+03  .931875000000D+02  .433553773541D-08 -.115447371041D+00
     .488013029099D-05  .327082478907D-02  .114403665066D-04  .515356418800D+04
     .367200000000D+06  .502914190292D-07 -.281882851550D+01 -.279396772385D-07
     .951724577366D+00  .153406250000D+03 -.156228181588D+00 -.795997442203D-08
    -.457161899771D-10  .100000000000D+01  .161900000000D+04  .000000000000D+00
     .240000000000D+01  .000000000000D+00 -.977888703346D-08  .113000000000D+03
     .360006000000D+06  .400000000000D+01
16 11  1 20  6  0  0.0 -.144096091390D-03 -.306954461848D-11  .000000000000D+00
     .480000000000D+02 -.152906250000D+03  .434268089009D-08  .174923348029D+01
    -.767409801483D-05  .607393146493D-02  .531412661076D-05  .515373959732D+04
     .367200000000D+06  .782310962677D-07 -.674120735012D+00  .119209289551D-06
     .974851571327D+00  .283250000000D+03 -.168096010879D+00 -.821355641331D-08
    -.525379027002D-09  .100000000000D+01  .161900000000D+04  .000000000000D+00
     .240000000000D+01  .000000000000D+00 -.977888703346D-08  .480000000000D+02
     .360006000000D+06  .400000000000D+01
